H1 CPF 01  gfz 2021 08 28 00  7393 tandemx   
H2 1003001  6202 36605    2021 08 27 12 59 42 2021 09 01 00 00 42   120 1 1  0 0 0
H9
10 0 59457  32382.000000  0    4600874.540  -3927206.522   3287157.261
10 0 59457  32502.000000  0    4763725.924  -4316709.166   2467454.472
10 0 59457  32622.000000  0    4837101.564  -4632791.719   1604296.900
10 0 59457  32742.000000  0    4821072.596  -4868368.896    712887.414
10 0 59457  32862.000000  0    4717399.798  -5017795.492   -191074.100
10 0 59457  32982.000000  0    4529475.683  -5076995.768  -1091675.316
10 0 59457  33102.000000  0    4262234.242  -5043561.466  -1973080.893
10 0 59457  33222.000000  0    3922028.901  -4916815.614  -2819818.689
10 0 59457  33342.000000  0    3516483.617  -4697840.962  -3617056.943
10 0 59457  33462.000000  0    3054320.826  -4389473.133  -4350866.012
10 0 59457  33582.000000  0    2545171.369  -3996259.116  -5008460.890
10 0 59457  33702.000000  0    1999370.280  -3524381.575  -5578417.939
10 0 59457  33822.000000  0    1427745.774  -2981554.233  -6050863.074
10 0 59457  33942.000000  0     841404.776  -2376890.900  -6417632.646
10 0 59457  34062.000000  0     251518.106  -1720748.482  -6672404.267
10 0 59457  34182.000000  0    -330889.279  -1024547.582  -6810794.924
10 0 59457  34302.000000  0    -895139.039   -300575.051  -6830427.421
10 0 59457  34422.000000  0   -1431090.170    438228.456  -6730966.187
10 0 59457  34542.000000  0   -1929317.128   1178493.672  -6514121.804
10 0 59457  34662.000000  0   -2381271.539   1906658.593  -6183624.735
10 0 59457  34782.000000  0   -2779426.778   2609210.761  -5745168.627
10 0 59457  34902.000000  0   -3117403.725   3272934.737  -5206322.992
10 0 59457  35022.000000  0   -3390075.651   3885160.263  -4576414.568
10 0 59457  35142.000000  0   -3593650.252   4434006.735  -3866376.447
10 0 59457  35262.000000  0   -3725724.923   4908617.875  -3088566.509
10 0 59457  35382.000000  0   -3785314.818   5299381.672  -2256559.724
10 0 59457  35502.000000  0   -3772854.661   5598132.324  -1384915.823
10 0 59457  35622.000000  0   -3690171.671   5798329.039   -488924.221
10 0 59457  35742.000000  0   -3540429.073   5895203.558    415668.903
10 0 59457  35862.000000  0   -3328043.819   5885874.238   1312943.906
10 0 59457  35982.000000  0   -3058576.696   5769423.328   2187098.267
10 0 59457  36102.000000  0   -2738597.869   5546932.686   3022735.311
10 0 59457  36222.000000  0   -2375533.392   5221477.758   3805142.540
10 0 59457  36342.000000  0   -1977496.862   4798082.544   4520555.333
10 0 59457  36462.000000  0   -1553110.213   4283636.138   5156401.396
10 0 59457  36582.000000  0   -1111317.314   3686773.107   5701521.899
10 0 59457  36702.000000  0    -661195.694   3017719.935   6146363.726
10 0 59457  36822.000000  0    -211770.809   2288112.291   6483141.384
10 0 59457  36942.000000  0     228163.578   1510788.047   6705966.927
10 0 59457  37062.000000  0     650216.623    699558.084   6810947.842
10 0 59457  37182.000000  0    1046559.387   -131040.058   6796249.696
10 0 59457  37302.000000  0    1410069.041   -966001.540   6662126.990
10 0 59457  37422.000000  0    1734456.683  -1790125.059   6410919.526
10 0 59457  37542.000000  0    2014376.575  -2588289.066   6047014.713
10 0 59457  37662.000000  0    2245515.285  -3345730.714   5576776.023
10 0 59457  37782.000000  0    2424659.124  -4048321.820   5008436.866
10 0 59457  37902.000000  0    2549738.223  -4682836.340   4351962.012
10 0 59457  38022.000000  0    2619848.152  -5237205.984   3618877.916
10 0 59457  38142.000000  0    2635246.945  -5700757.794   2822072.408
10 0 59457  38262.000000  0    2597326.805  -6064428.570   1975567.712
10 0 59457  38382.000000  0    2508561.632  -6320948.487   1094269.675
10 0 59457  38502.000000  0    2372432.215  -6464991.208    193700.894
10 0 59457  38622.000000  0    2193330.675  -6493288.552   -710280.090
10 0 59457  38742.000000  0    1976445.267  -6404702.680  -1601768.784
10 0 59457  38862.000000  0    1727627.901  -6200253.864  -2465103.077
10 0 59457  38982.000000  0    1453249.485  -5883106.207  -3285145.988
10 0 59457  39102.000000  0    1160046.778  -5458506.632  -4047554.601
10 0 59457  39222.000000  0     854966.513  -4933686.526  -4739029.982
10 0 59457  39342.000000  0     545008.315  -4317726.375  -5347544.916
10 0 59457  39462.000000  0     237070.929  -3621387.795  -5862545.636
10 0 59457  39582.000000  0     -62195.032  -2856916.386  -6275124.875
10 0 59457  39702.000000  0    -346524.706  -2037820.747  -6578164.347
10 0 59457  39822.000000  0    -610164.735  -1178632.031  -6766446.170
10 0 59457  39942.000000  0    -847984.803   -294648.204  -6836733.754
10 0 59457  40062.000000  0   -1055573.596    598334.157  -6787820.789
10 0 59457  40182.000000  0   -1229318.319   1484294.759  -6620548.763
10 0 59457  40302.000000  0   -1366466.141   2347269.642  -6337793.843
10 0 59457  40422.000000  0   -1465167.023   3171631.761  -5944423.814
10 0 59457  40542.000000  0   -1524498.002   3942371.007  -5447223.863
10 0 59457  40662.000000  0   -1544467.478   4645366.876  -4854790.488
10 0 59457  40782.000000  0   -1526000.306   5267651.279  -4177394.551
10 0 59457  40902.000000  0   -1470903.040   5797654.846  -3426812.585
10 0 59457  41022.000000  0   -1381809.394   6225430.799  -2616129.647
10 0 59457  41142.000000  0   -1262107.477   6542853.009  -1759516.867
10 0 59457  41262.000000  0   -1115849.805   6743782.432   -871984.443
10 0 59457  41382.000000  0    -947648.208   6824196.308     30882.997
10 0 59457  41502.000000  0    -762555.569   6782278.691    933205.639
10 0 59457  41622.000000  0    -565937.557   6618466.188   1819097.774
10 0 59457  41742.000000  0    -363337.845   6335445.180   2672957.855
10 0 59457  41862.000000  0    -160340.557   5938103.804   3479750.205
10 0 59457  41982.000000  0      37566.416   5433442.281   4225274.802
10 0 59457  42102.000000  0     225124.144   4830443.500   4896423.770
10 0 59457  42222.000000  0     397429.375   4139898.174   5481413.565
10 0 59457  42342.000000  0     550050.625   3374203.196   5969986.045
10 0 59457  42462.000000  0     679131.474   2547131.420   6353585.777
10 0 59457  42582.000000  0     781478.486   1673576.979   6625503.681
10 0 59457  42702.000000  0     854633.108    769282.850   6780988.622
10 0 59457  42822.000000  0     896925.897   -149444.471   6817324.501
10 0 59457  42942.000000  0     907512.245  -1066027.712   6733875.414
10 0 59457  43062.000000  0     886388.872  -1963917.967   6532097.017
10 0 59457  43182.000000  0     834390.857  -2826893.360   6215513.221
10 0 59457  43302.000000  0     753169.086  -3639354.278   5789658.156
10 0 59457  43422.000000  0     645148.485  -4386606.964   5261982.576
10 0 59457  43542.000000  0     513469.357  -5055132.192   4641729.935
10 0 59457  43662.000000  0     361911.617  -5632837.261   3939781.663
10 0 59457  43782.000000  0     194802.383  -6109285.386   3168470.024
10 0 59457  43902.000000  0      16909.540  -6475894.871   2341362.115
10 0 59457  44022.000000  0    -166676.467  -6726102.751   1473018.912
10 0 59457  44142.000000  0    -350669.409  -6855491.285    578735.501
10 0 59457  44262.000000  0    -529720.207  -6861872.811   -325737.124
10 0 59457  44382.000000  0    -698551.856  -6745327.116  -1224479.672
10 0 59457  44502.000000  0    -852092.321  -6508192.432  -2101693.457
10 0 59457  44622.000000  0    -985602.700  -6155012.423  -2941984.716
10 0 59457  44742.000000  0   -1094797.786  -5692440.118  -3730639.942
10 0 59457  44862.000000  0   -1175955.681  -5129100.476  -4453885.733
10 0 59457  44982.000000  0   -1226013.569  -4475416.299  -5099126.601
10 0 59457  45102.000000  0   -1242648.059  -3743404.073  -5655157.668
10 0 59457  45222.000000  0   -1224338.306  -2946444.198  -6112350.300
10 0 59457  45342.000000  0   -1170410.897  -2099030.263  -6462808.336
10 0 59457  45462.000000  0   -1081066.102  -1216502.813  -6700492.640
10 0 59457  45582.000000  0    -957385.548   -314773.426  -6821314.543
10 0 59457  45702.000000  0    -801320.846    589957.747  -6823198.251
10 0 59457  45822.000000  0    -615662.798   1481485.692  -6706111.678
10 0 59457  45942.000000  0    -403992.984   2343883.027  -6472066.845
10 0 59457  46062.000000  0    -170617.987   3161777.619  -6125090.112
10 0 59457  46182.000000  0      79514.347   3920623.557  -5671161.554
10 0 59457  46302.000000  0     340914.650   4606959.103  -5118121.315
10 0 59457  46422.000000  0     607665.558   5208648.310  -4475546.106
10 0 59457  46542.000000  0     873547.997   5715103.269  -3754594.384
10 0 59457  46662.000000  0    1132177.864   6117480.316  -2967821.299
10 0 59457  46782.000000  0    1377150.017   6408846.362  -2128966.498
10 0 59457  46902.000000  0    1602186.731   6584311.310  -1252716.668
10 0 59457  47022.000000  0    1801287.116   6641121.848   -354446.555
10 0 59457  47142.000000  0    1968873.275   6578712.563    550056.302
10 0 59457  47262.000000  0    2099928.928   6398713.321   1444876.034
10 0 59457  47382.000000  0    2190127.759   6104913.138   2314256.419
10 0 59457  47502.000000  0    2235947.886   5703180.732   3142886.249
10 0 59457  47622.000000  0    2234769.899   5201344.541   3916176.529
10 0 59457  47742.000000  0    2184954.744   4609033.937   4620523.834
10 0 59457  47862.000000  0    2085900.133   3937484.172   5243553.834
10 0 59457  47982.000000  0    1938073.761   3199312.155   5774335.609
10 0 59457  48102.000000  0    1743024.988   2408273.186   6203569.024
10 0 59457  48222.000000  0    1503373.255   1578998.782   6523743.632
10 0 59457  48342.000000  0    1222773.501    726720.896   6729263.983
10 0 59457  48462.000000  0     905859.931   -133009.345   6816540.286
10 0 59457  48582.000000  0     558169.362   -984603.929   6784048.140
10 0 59457  48702.000000  0     186044.238  -1812720.976   6632354.658
10 0 59457  48822.000000  0    -203483.252  -2602541.079   6364109.008
99
